[{"OBJECT_NAME":"PROPCUBE 1 (FLORA)","OBJECT_ID":"2015-058N","EPOCH":"2026-03-09T22:10:52.593312","MEAN_MOTION":14.88641208,"ECCENTRICITY":0.01301152,"INCLINATION":64.774,"RA_OF_ASC_NODE":242.7389,"ARG_OF_PERICENTER":100.0601,"MEAN_ANOMALY":261.522,"EPHEMERIS_TYPE":0,"CLASSIFICATION_TYPE":"U","NORAD_CAT_ID":40976,"ELEMENT_SET_NO":999,"REV_AT_EPOCH":10148,"BSTAR":0.00044491072,"MEAN_MOTION_DOT":4.703e-5,"MEAN_MOTION_DDOT":0},{"OBJECT_NAME":"FOSSASAT-2E22","OBJECT_ID":"2025-276DU","EPOCH":"2026-03-09T17:31:32.157120","MEAN_MOTION":15.17702542,"ECCENTRICITY":0.00067992,"INCLINATION":97.4248,"RA_OF_ASC_NODE":143.8392,"ARG_OF_PERICENTER":122.1987,"MEAN_ANOMALY":237.9907,"EPHEMERIS_TYPE":0,"CLASSIFICATION_TYPE":"U","NORAD_CAT_ID":66779,"ELEMENT_SET_NO":999,"REV_AT_EPOCH":1531,"BSTAR":0.00072006119,"MEAN_MOTION_DOT":0.00014475,"MEAN_MOTION_DDOT":0}]
