PROPCUBE 1 (FLORA)      
1 40976U 15058N   26068.92421983  .00004703  00000+0  44491-3 0  9993
2 40976  64.7740 242.7389 0130115 100.0601 261.5220 14.88641208101484
FOSSASAT-2E22           
1 66779U 25276DU  26068.73023330  .00014475  00000+0  72006-3 0  9998
2 66779  97.4248 143.8392 0006799 122.1987 237.9907 15.17702542 15313
